{"type": "FeatureCollection", "features": [{"type": "Feature", "properties": {"norad_id": 22490, "name": "SCD 1", "group": "resource", "lat": 23.564728559373094, "lon": -103.44791423163531, "alt_km": 714.1306570005117, "timestamp": "2025-12-27T14:26:30.172880+00:00", "meta": {"OBJECT_NAME": "SCD 1", "OBJECT_ID": "1993-009B", "EPOCH": "2025-12-26T15:05:04.547040", "MEAN_MOTION": 14.46008245, "ECCENTRICITY": 0.0042179, "INCLINATION": 24.9674, "RA_OF_ASC_NODE": 192.9471, "ARG_OF_PERICENTER": 111.7084, "MEAN_ANOMALY": 283.5703, "EPHEMERIS_TYPE": 0, "CLASSIFICATION_TYPE": "U", "NORAD_CAT_ID": 22490, "ELEMENT_SET_NO": 999, "REV_AT_EPOCH": 73611, "BSTAR": 9.5318e-05, "MEAN_MOTION_DOT": 5.34e-06, "MEAN_MOTION_DDOT": 0}, "tle": {"line1": "1 22490U 93009B   25360.62852485  .00000534  00000+0  95318-4 0  9995", "line2": "2 22490  24.9674 192.9471 0042179 111.7084 283.5703 14.46008245736119"}}, "geometry": {"type": "Point", "coordinates": [-103.44791423163531, 23.564728559373094]}}, {"type": "Feature", "properties": {"norad_id": 25397, "name": "TECHSAT 1B (GO-32)", "group": "resource", "lat": 14.871033473840873, "lon": -17.252444884820086, "alt_km": 810.2597880530657, "timestamp": "2025-12-27T14:26:30.172907+00:00", "meta": {"OBJECT_NAME": "TECHSAT 1B (GO-32)", "OBJECT_ID": "1998-043D", "EPOCH": "2025-12-26T21:30:44.500032", "MEAN_MOTION": 14.24381035, "ECCENTRICITY": 0.0001601, "INCLINATION": 98.9935, "RA_OF_ASC_NODE": 344.436, "ARG_OF_PERICENTER": 33.7104, "MEAN_ANOMALY": 326.4176, "EPHEMERIS_TYPE": 0, "CLASSIFICATION_TYPE": "U", "NORAD_CAT_ID": 25397, "ELEMENT_SET_NO": 999, "REV_AT_EPOCH": 42680, "BSTAR": 7.2286e-05, "MEAN_MOTION_DOT": 1.21e-06, "MEAN_MOTION_DDOT": 0}, "tle": {"line1": "1 25397U 98043D   25360.89634838  .00000121  00000+0  72286-4 0  9997", "line2": "2 25397  98.9935 344.4360 0001601  33.7104 326.4176 14.24381035426801"}}, "geometry": {"type": "Point", "coordinates": [-17.252444884820086, 14.871033473840873]}}, {"type": "Feature", "properties": {"norad_id": 25504, "name": "SCD 2", "group": "resource", "lat": 23.766549852963923, "lon": 121.19117328468883, "alt_km": 725.4226187403347, "timestamp": "2025-12-27T14:26:30.172923+00:00", "meta": {"OBJECT_NAME": "SCD 2", "OBJECT_ID": "1998-060A", "EPOCH": "2025-12-27T04:18:28.238400", "MEAN_MOTION": 14.45431341, "ECCENTRICITY": 0.00170633, "INCLINATION": 24.9958, "RA_OF_ASC_NODE": 52.8597, "ARG_OF_PERICENTER": 105.275, "MEAN_ANOMALY": 285.8296, "EPHEMERIS_TYPE": 0, "CLASSIFICATION_TYPE": "U", "NORAD_CAT_ID": 25504, "ELEMENT_SET_NO": 999, "REV_AT_EPOCH": 43541, "BSTAR": 9.0144824e-05, "MEAN_MOTION_DOT": 5.05e-06, "MEAN_MOTION_DDOT": 0}, "tle": {"line1": "1 25504U 98060A   25361.17949350  .00000505  00000+0  90145-4 0  9996", "line2": "2 25504  24.9958  52.8597 0017063 105.2750 285.8296 14.45431341435415"}}, "geometry": {"type": "Point", "coordinates": [121.19117328468883, 23.766549852963923]}}, {"type": "Feature", "properties": {"norad_id": 25757, "name": "DLR-TUBSAT", "group": "resource", "lat": -69.91034744402903, "lon": 11.190284195157135, "alt_km": 733.0101739983002, "timestamp": "2025-12-27T14:26:30.172936+00:00", "meta": {"OBJECT_NAME": "DLR-TUBSAT", "OBJECT_ID": "1999-029B", "EPOCH": "2025-12-17T13:22:10.787520", "MEAN_MOTION": 14.52359578, "ECCENTRICITY": 0.00141996, "INCLINATION": 98.6566, "RA_OF_ASC_NODE": 336.2196, "ARG_OF_PERICENTER": 177.8976, "MEAN_ANOMALY": 182.2281, "EPHEMERIS_TYPE": 0, "CLASSIFICATION_TYPE": "U", "NORAD_CAT_ID": 25757, "ELEMENT_SET_NO": 999, "REV_AT_EPOCH": 40688, "BSTAR": 3.7650132e-05, "MEAN_MOTION_DOT": 1.05e-06, "MEAN_MOTION_DDOT": 0}, "tle": {"line1": "1 25757U 99029B   25351.55706930  .00000105  00000+0  37650-4 0  9996", "line2": "2 25757  98.6566 336.2196 0014199 177.8976 182.2281 14.52359578406886"}}, "geometry": {"type": "Point", "coordinates": [11.190284195157135, -69.91034744402903]}}, {"type": "Feature", "properties": {"norad_id": 25994, "name": "TERRA", "group": "resource", "lat": 81.57673075123455, "lon": -18.423917545732532, "alt_km": 680.5727429390245, "timestamp": "2025-12-27T14:26:30.172947+00:00", "meta": {"OBJECT_NAME": "TERRA", "OBJECT_ID": "1999-068A", "EPOCH": "2025-12-27T06:10:03.159264", "MEAN_MOTION": 14.60918159, "ECCENTRICITY": 0.00033589, "INCLINATION": 97.9729, "RA_OF_ASC_NODE": 52.4073, "ARG_OF_PERICENTER": 65.3687, "MEAN_ANOMALY": 9.8105, "EPHEMERIS_TYPE": 0, "CLASSIFICATION_TYPE": "U", "NORAD_CAT_ID": 25994, "ELEMENT_SET_NO": 999, "REV_AT_EPOCH": 38450, "BSTAR": 0.00012185194, "MEAN_MOTION_DOT": 5.52e-06, "MEAN_MOTION_DDOT": 0}, "tle": {"line1": "1 25994U 99068A   25361.25698101  .00000552  00000+0  12185-3 0  9991", "line2": "2 25994  97.9729  52.4073 0003358  65.3687   9.8105 14.60918159384506"}}, "geometry": {"type": "Point", "coordinates": [-18.423917545732532, 81.57673075123455]}}, {"type": "Feature", "properties": {"norad_id": 27004, "name": "MAROC-TUBSAT", "group": "resource", "lat": -79.2668764134142, "lon": -124.04421346178283, "alt_km": 997.4674207547478, "timestamp": "2025-12-27T14:26:30.172960+00:00", "meta": {"OBJECT_NAME": "MAROC-TUBSAT", "OBJECT_ID": "2001-056D", "EPOCH": "2025-12-27T01:22:59.257056", "MEAN_MOTION": 13.70253596, "ECCENTRICITY": 0.00193244, "INCLINATION": 99.7918, "RA_OF_ASC_NODE": 169.7536, "ARG_OF_PERICENTER": 222.2128, "MEAN_ANOMALY": 249.3798, "EPHEMERIS_TYPE": 0, "CLASSIFICATION_TYPE": "U", "NORAD_CAT_ID": 27004, "ELEMENT_SET_NO": 999, "REV_AT_EPOCH": 20261, "BSTAR": 3.1115265e-05, "MEAN_MOTION_DOT": -1.9e-07, "MEAN_MOTION_DDOT": 0}, "tle": {"line1": "1 27004U 01056D   25361.05763029 -.00000019  00000+0  31115-4 0  9999", "line2": "2 27004  99.7918 169.7536 0019324 222.2128 249.3798 13.70253596202617"}}, "geometry": {"type": "Point", "coordinates": [-124.04421346178283, -79.2668764134142]}}, {"type": "Feature", "properties": {"norad_id": 27424, "name": "AQUA", "group": "resource", "lat": 10.483437121509702, "lon": -38.84397319987737, "alt_km": 688.9270708765671, "timestamp": "2025-12-27T14:26:30.172971+00:00", "meta": {"OBJECT_NAME": "AQUA", "OBJECT_ID": "2002-022A", "EPOCH": "2025-12-26T23:47:53.598912", "MEAN_MOTION": 14.61764548, "ECCENTRICITY": 0.00018494, "INCLINATION": 98.4058, "RA_OF_ASC_NODE": 322.1038, "ARG_OF_PERICENTER": 99.7002, "MEAN_ANOMALY": 302.1298, "EPHEMERIS_TYPE": 0, "CLASSIFICATION_TYPE": "U", "NORAD_CAT_ID": 27424, "ELEMENT_SET_NO": 999, "REV_AT_EPOCH": 25811, "BSTAR": 0.00027355086, "MEAN_MOTION_DOT": 1.315e-05, "MEAN_MOTION_DDOT": 0}, "tle": {"line1": "1 27424U 02022A   25360.99159258  .00001315  00000+0  27355-3 0  9993", "line2": "2 27424  98.4058 322.1038 0001849  99.7002 302.1298 14.61764548258111"}}, "geometry": {"type": "Point", "coordinates": [-38.84397319987737, 10.483437121509702]}}, {"type": "Feature", "properties": {"norad_id": 28051, "name": "IRS-P6 (RESOURCESAT-1)", "group": "resource", "lat": -58.5591964517642, "lon": 54.987577247367255, "alt_km": 823.2907090882873, "timestamp": "2025-12-27T14:26:30.172982+00:00", "meta": {"OBJECT_NAME": "IRS-P6 (RESOURCESAT-1)", "OBJECT_ID": "2003-046A", "EPOCH": "2025-12-27T06:59:18.553344", "MEAN_MOTION": 14.36080702, "ECCENTRICITY": 0.00650261, "INCLINATION": 98.2159, "RA_OF_ASC_NODE": 41.0223, "ARG_OF_PERICENTER": 137.2801, "MEAN_ANOMALY": 358.4506, "EPHEMERIS_TYPE": 0, "CLASSIFICATION_TYPE": "U", "NORAD_CAT_ID": 28051, "ELEMENT_SET_NO": 999, "REV_AT_EPOCH": 15585, "BSTAR": 4.3661346e-05, "MEAN_MOTION_DOT": 9e-07, "MEAN_MOTION_DDOT": 0}, "tle": {"line1": "1 28051U 03046A   25361.29118696  .00000090  00000+0  43661-4 0  9990", "line2": "2 28051  98.2159  41.0223 0065026 137.2801 358.4506 14.36080702155851"}}, "geometry": {"type": "Point", "coordinates": [54.987577247367255, -58.5591964517642]}}, {"type": "Feature", "properties": {"norad_id": 28220, "name": "SHIYAN-1 (SY-1)", "group": "resource", "lat": 61.411744021753734, "lon": 49.2731782809873, "alt_km": 477.53727083073863, "timestamp": "2025-12-27T14:26:30.172993+00:00", "meta": {"OBJECT_NAME": "SHIYAN-1 (SY-1)", "OBJECT_ID": "2004-012A", "EPOCH": "2025-12-27T03:10:17.240736", "MEAN_MOTION": 15.28524905, "ECCENTRICITY": 0.00051661, "INCLINATION": 97.8914, "RA_OF_ASC_NODE": 63.5214, "ARG_OF_PERICENTER": 264.7953, "MEAN_ANOMALY": 95.2696, "EPHEMERIS_TYPE": 0, "CLASSIFICATION_TYPE": "U", "NORAD_CAT_ID": 28220, "ELEMENT_SET_NO": 999, "REV_AT_EPOCH": 18476, "BSTAR": 0.00061686102, "MEAN_MOTION_DOT": 0.00017068, "MEAN_MOTION_DDOT": 0}, "tle": {"line1": "1 28220U 04012A   25361.13214399  .00017068  00000+0  61686-3 0  9991", "line2": "2 28220  97.8914  63.5214 0005166 264.7953  95.2696 15.28524905184763"}}, "geometry": {"type": "Point", "coordinates": [49.2731782809873, 61.411744021753734]}}, {"type": "Feature", "properties": {"norad_id": 28376, "name": "AURA", "group": "resource", "lat": 79.17005819036065, "lon": -178.19356687258016, "alt_km": 681.6221014227676, "timestamp": "2025-12-27T14:26:30.173003+00:00", "meta": {"OBJECT_NAME": "AURA", "OBJECT_ID": "2004-026A", "EPOCH": "2025-12-27T05:46:52.407840", "MEAN_MOTION": 14.60980321, "ECCENTRICITY": 0.0001455, "INCLINATION": 98.3205, "RA_OF_ASC_NODE": 311.5366, "ARG_OF_PERICENTER": 90.1118, "MEAN_ANOMALY": 270.0249, "EPHEMERIS_TYPE": 0, "CLASSIFICATION_TYPE": "U", "NORAD_CAT_ID": 28376, "ELEMENT_SET_NO": 999, "REV_AT_EPOCH": 14110, "BSTAR": 0.0002713825, "MEAN_MOTION_DOT": 1.283e-05, "MEAN_MOTION_DDOT": 0}, "tle": {"line1": "1 28376U 04026A   25361.24088435  .00001283  00000+0  27138-3 0  9996", "line2": "2 28376  98.3205 311.5366 0001455  90.1118 270.0249 14.60980321141100"}}, "geometry": {"type": "Point", "coordinates": [-178.19356687258016, 79.17005819036065]}}]}